{
  "type": "FeatureCollection",
  "features": [
    {
      "type": "Feature",
      "properties": {
        "name": "Manhattan",
        "natural": "land"
      },
      "geometry": {
        "type": "Polygon",
        "coordinates": [[
          [-74.0479, 40.6829],
          [-73.9067, 40.6829], 
          [-73.9067, 40.8820],
          [-74.0479, 40.8820],
          [-74.0479, 40.6829]
        ]]
      }
    },
    {
      "type": "Feature", 
      "properties": {
        "name": "Central Park",
        "leisure": "park"
      },
      "geometry": {
        "type": "Polygon",
        "coordinates": [[
          [-73.9581, 40.7829],
          [-73.9441, 40.7829],
          [-73.9441, 40.7964], 
          [-73.9581, 40.7964],
          [-73.9581, 40.7829]
        ]]
      }
    },
    {
      "type": "Feature",
      "properties": {
        "name": "East River",
        "natural": "water"
      },
      "geometry": {
        "type": "Polygon", 
        "coordinates": [[
          [-73.9067, 40.6829],
          [-73.8567, 40.6829],
          [-73.8567, 40.8820],
          [-73.9067, 40.8820],
          [-73.9067, 40.6829]
        ]]
      }
    },
    {
      "type": "Feature",
      "properties": {
        "name": "Broadway", 
        "highway": "primary"
      },
      "geometry": {
        "type": "LineString",
        "coordinates": [
          [-73.9857, 40.7589],
          [-73.9857, 40.7889]
        ]
      }
    }
  ]
}